[{"OBJECT_NAME":"LEMUR-1","OBJECT_ID":"2014-033AL","EPOCH":"2026-03-06T11:18:36.004320","MEAN_MOTION":14.84779896,"ECCENTRICITY":0.00496869,"INCLINATION":97.7711,"RA_OF_ASC_NODE":217.6758,"ARG_OF_PERICENTER":56.1978,"MEAN_ANOMALY":304.3953,"EPHEMERIS_TYPE":0,"CLASSIFICATION_TYPE":"U","NORAD_CAT_ID":40044,"ELEMENT_SET_NO":999,"REV_AT_EPOCH":63022,"BSTAR":0.00036121578,"MEAN_MOTION_DOT":3.078e-5,"MEAN_MOTION_DDOT":0},{"OBJECT_NAME":"LEMUR-2-GREENBERG","OBJECT_ID":"2017-042N","EPOCH":"2026-03-06T09:12:49.665888","MEAN_MOTION":15.27822128,"ECCENTRICITY":0.00093674,"INCLINATION":97.377,"RA_OF_ASC_NODE":246.7543,"ARG_OF_PERICENTER":14.9308,"MEAN_ANOMALY":345.2207,"EPHEMERIS_TYPE":0,"CLASSIFICATION_TYPE":"U","NORAD_CAT_ID":42837,"ELEMENT_SET_NO":999,"REV_AT_EPOCH":47267,"BSTAR":0.00082173505,"MEAN_MOTION_DOT":0.00022322,"MEAN_MOTION_DDOT":0},{"OBJECT_NAME":"LEMUR-2-ANDIS","OBJECT_ID":"2017-042P","EPOCH":"2026-03-06T11:40:31.429632","MEAN_MOTION":15.30376816,"ECCENTRICITY":0.00092842,"INCLINATION":97.365,"RA_OF_ASC_NODE":246.7461,"ARG_OF_PERICENTER":14.8782,"MEAN_ANOMALY":345.273,"EPHEMERIS_TYPE":0,"CLASSIFICATION_TYPE":"U","NORAD_CAT_ID":42838,"ELEMENT_SET_NO":999,"REV_AT_EPOCH":47272,"BSTAR":0.00090173843,"MEAN_MOTION_DOT":0.00026513,"MEAN_MOTION_DDOT":0},{"OBJECT_NAME":"LEMUR-2-MONSON","OBJECT_ID":"2017-042Q","EPOCH":"2026-03-06T10:38:36.455136","MEAN_MOTION":15.24856645,"ECCENTRICITY":0.00067592,"INCLINATION":97.4027,"RA_OF_ASC_NODE":246.9192,"ARG_OF_PERICENTER":4.1085,"MEAN_ANOMALY":356.0207,"EPHEMERIS_TYPE":0,"CLASSIFICATION_TYPE":"U","NORAD_CAT_ID":42839,"ELEMENT_SET_NO":999,"REV_AT_EPOCH":47249,"BSTAR":0.00077799283,"MEAN_MOTION_DOT":0.00019303,"MEAN_MOTION_DDOT":0},{"OBJECT_NAME":"LEMUR-2-FURIAUS","OBJECT_ID":"2017-042R","EPOCH":"2026-03-06T13:14:54.261024","MEAN_MOTION":15.26061804,"ECCENTRICITY":0.00076491,"INCLINATION":97.3743,"RA_OF_ASC_NODE":245.1347,"ARG_OF_PERICENTER":68.1862,"MEAN_ANOMALY":292.019,"EPHEMERIS_TYPE":0,"CLASSIFICATION_TYPE":"U","NORAD_CAT_ID":42840,"ELEMENT_SET_NO":999,"REV_AT_EPOCH":47253,"BSTAR":0.0011760807,"MEAN_MOTION_DOT":0.00030341,"MEAN_MOTION_DDOT":0},{"OBJECT_NAME":"LEMUR-2-PETERG","OBJECT_ID":"2017-042S","EPOCH":"2026-03-06T01:55:46.612704","MEAN_MOTION":15.29425664,"ECCENTRICITY":0.0003813,"INCLINATION":97.397,"RA_OF_ASC_NODE":250.2746,"ARG_OF_PERICENTER":354.5915,"MEAN_ANOMALY":5.5283,"EPHEMERIS_TYPE":0,"CLASSIFICATION_TYPE":"U","NORAD_CAT_ID":42841,"ELEMENT_SET_NO":999,"REV_AT_EPOCH":47265,"BSTAR":0.00070034938,"MEAN_MOTION_DOT":0.00019942,"MEAN_MOTION_DDOT":0},{"OBJECT_NAME":"LEMUR-2-DEMBITZ","OBJECT_ID":"2017-042T","EPOCH":"2026-03-06T01:36:33.365376","MEAN_MOTION":15.26773769,"ECCENTRICITY":0.00071105,"INCLINATION":97.3798,"RA_OF_ASC_NODE":247.5551,"ARG_OF_PERICENTER":28.8935,"MEAN_ANOMALY":331.2696,"EPHEMERIS_TYPE":0,"CLASSIFICATION_TYPE":"U","NORAD_CAT_ID":42842,"ELEMENT_SET_NO":999,"REV_AT_EPOCH":47259,"BSTAR":0.00070293373,"MEAN_MOTION_DOT":0.00018468,"MEAN_MOTION_DDOT":0},{"OBJECT_NAME":"LEMUR-2-ZACHARY","OBJECT_ID":"2017-042W","EPOCH":"2026-03-06T11:20:07.071648","MEAN_MOTION":15.41735499,"ECCENTRICITY":0.00036889,"INCLINATION":97.3651,"RA_OF_ASC_NODE":255.5354,"ARG_OF_PERICENTER":29.7401,"MEAN_ANOMALY":330.4055,"EPHEMERIS_TYPE":0,"CLASSIFICATION_TYPE":"U","NORAD_CAT_ID":42845,"ELEMENT_SET_NO":999,"REV_AT_EPOCH":47333,"BSTAR":0.0011531742,"MEAN_MOTION_DOT":0.00048891,"MEAN_MOTION_DDOT":0},{"OBJECT_NAME":"LEMUR-2-JIN-LUEN","OBJECT_ID":"2018-014C","EPOCH":"2026-03-06T08:47:31.245504","MEAN_MOTION":15.77286421,"ECCENTRICITY":0.00022896,"INCLINATION":97.5448,"RA_OF_ASC_NODE":355.336,"ARG_OF_PERICENTER":134.6606,"MEAN_ANOMALY":225.4847,"EPHEMERIS_TYPE":0,"CLASSIFICATION_TYPE":"U","NORAD_CAT_ID":43182,"ELEMENT_SET_NO":999,"REV_AT_EPOCH":44494,"BSTAR":0.0013033365,"MEAN_MOTION_DOT":0.00218446,"MEAN_MOTION_DDOT":0},{"OBJECT_NAME":"LEMUR-2-KADI","OBJECT_ID":"2018-014E","EPOCH":"2026-03-06T08:11:38.764896","MEAN_MOTION":15.63372747,"ECCENTRICITY":7.456e-5,"INCLINATION":97.4713,"RA_OF_ASC_NODE":349.8198,"ARG_OF_PERICENTER":82.6362,"MEAN_ANOMALY":277.4981,"EPHEMERIS_TYPE":0,"CLASSIFICATION_TYPE":"U","NORAD_CAT_ID":43184,"ELEMENT_SET_NO":999,"REV_AT_EPOCH":44486,"BSTAR":0.001050921,"MEAN_MOTION_DOT":0.00097526,"MEAN_MOTION_DDOT":0},{"OBJECT_NAME":"LEMUR-2-AMANDA-SVANTE","OBJECT_ID":"2021-034B","EPOCH":"2026-03-06T04:12:32.806944","MEAN_MOTION":15.28198894,"ECCENTRICITY":0.00023729,"INCLINATION":97.5832,"RA_OF_ASC_NODE":141.1964,"ARG_OF_PERICENTER":216.4772,"MEAN_ANOMALY":143.6306,"EPHEMERIS_TYPE":0,"CLASSIFICATION_TYPE":"U","NORAD_CAT_ID":48269,"ELEMENT_SET_NO":999,"REV_AT_EPOCH":26529,"BSTAR":0.0010568402,"MEAN_MOTION_DOT":0.00029051,"MEAN_MOTION_DDOT":0},{"OBJECT_NAME":"LEMUR-2-SPECIAL-K","OBJECT_ID":"2021-034F","EPOCH":"2026-03-06T05:15:32.167584","MEAN_MOTION":15.4476882,"ECCENTRICITY":0.00015247,"INCLINATION":97.5721,"RA_OF_ASC_NODE":146.3818,"ARG_OF_PERICENTER":218.2117,"MEAN_ANOMALY":141.9023,"EPHEMERIS_TYPE":0,"CLASSIFICATION_TYPE":"U","NORAD_CAT_ID":48273,"ELEMENT_SET_NO":999,"REV_AT_EPOCH":26570,"BSTAR":0.0015558458,"MEAN_MOTION_DOT":0.00073279,"MEAN_MOTION_DDOT":0},{"OBJECT_NAME":"LEMUR-2-EMBRIONOVIS","OBJECT_ID":"2023-084AQ","EPOCH":"2026-03-06T14:33:17.631648","MEAN_MOTION":15.34581434,"ECCENTRICITY":0.00084901,"INCLINATION":97.6126,"RA_OF_ASC_NODE":206.1878,"ARG_OF_PERICENTER":324.9078,"MEAN_ANOMALY":35.1604,"EPHEMERIS_TYPE":0,"CLASSIFICATION_TYPE":"U","NORAD_CAT_ID":56970,"ELEMENT_SET_NO":999,"REV_AT_EPOCH":15193,"BSTAR":0.00033210167,"MEAN_MOTION_DOT":0.00011059,"MEAN_MOTION_DDOT":0},{"OBJECT_NAME":"LEMUR-2-MANO","OBJECT_ID":"2023-100E","EPOCH":"2026-03-05T23:32:35.173824","MEAN_MOTION":15.59614178,"ECCENTRICITY":0.00016481,"INCLINATION":99.4554,"RA_OF_ASC_NODE":86.2853,"ARG_OF_PERICENTER":62.9717,"MEAN_ANOMALY":297.1701,"EPHEMERIS_TYPE":0,"CLASSIFICATION_TYPE":"U","NORAD_CAT_ID":57390,"ELEMENT_SET_NO":999,"REV_AT_EPOCH":14590,"BSTAR":0.0016522051,"MEAN_MOTION_DOT":0.00133427,"MEAN_MOTION_DDOT":0},{"OBJECT_NAME":"LEMUR-2-DEVERILL-M-T","OBJECT_ID":"2023-100F","EPOCH":"2026-03-06T06:14:13.155936","MEAN_MOTION":15.34507627,"ECCENTRICITY":0.00084098,"INCLINATION":99.4575,"RA_OF_ASC_NODE":74.7363,"ARG_OF_PERICENTER":38.626,"MEAN_ANOMALY":321.5576,"EPHEMERIS_TYPE":0,"CLASSIFICATION_TYPE":"U","NORAD_CAT_ID":57391,"ELEMENT_SET_NO":999,"REV_AT_EPOCH":14543,"BSTAR":0.00091281152,"MEAN_MOTION_DOT":0.00030531,"MEAN_MOTION_DDOT":0},{"OBJECT_NAME":"LEMUR-2-BASS","OBJECT_ID":"2023-174D","EPOCH":"2026-03-06T04:27:04.501728","MEAN_MOTION":15.39606044,"ECCENTRICITY":0.00080295,"INCLINATION":97.3887,"RA_OF_ASC_NODE":148.7168,"ARG_OF_PERICENTER":174.4383,"MEAN_ANOMALY":185.6954,"EPHEMERIS_TYPE":0,"CLASSIFICATION_TYPE":"U","NORAD_CAT_ID":58259,"ELEMENT_SET_NO":999,"REV_AT_EPOCH":12949,"BSTAR":0.00051386236,"MEAN_MOTION_DOT":0.00020204,"MEAN_MOTION_DDOT":0}]
