LEMUR-1                 
1 40044U 14033AL  26065.47125005  .00003078  00000+0  36122-3 0  9990
2 40044  97.7711 217.6758 0049686  56.1978 304.3953 14.84779896630224
LEMUR-2-GREENBERG       
1 42837U 17042N   26065.38390817  .00022322  00000+0  82174-3 0  9991
2 42837  97.3770 246.7543 0009367  14.9308 345.2207 15.27822128472677
LEMUR-2-ANDIS           
1 42838U 17042P   26065.48647488  .00026513  00000+0  90174-3 0  9997
2 42838  97.3650 246.7461 0009284  14.8782 345.2730 15.30376816472726
LEMUR-2-MONSON          
1 42839U 17042Q   26065.44347749  .00019303  00000+0  77799-3 0  9998
2 42839  97.4027 246.9192 0006759   4.1085 356.0207 15.24856645472490
LEMUR-2-FURIAUS         
1 42840U 17042R   26065.55201691  .00030341  00000+0  11761-2 0  9998
2 42840  97.3743 245.1347 0007649  68.1862 292.0190 15.26061804472533
LEMUR-2-PETERG          
1 42841U 17042S   26065.08040061  .00019942  00000+0  70035-3 0  9993
2 42841  97.3970 250.2746 0003813 354.5915   5.5283 15.29425664472650
LEMUR-2-DEMBITZ         
1 42842U 17042T   26065.06705284  .00018468  00000+0  70293-3 0  9995
2 42842  97.3798 247.5551 0007110  28.8935 331.2696 15.26773769472598
LEMUR-2-ZACHARY         
1 42845U 17042W   26065.47230407  .00048891  00000+0  11532-2 0  9996
2 42845  97.3651 255.5354 0003688  29.7401 330.4055 15.41735499473331
LEMUR-2-JIN-LUEN        
1 43182U 18014C   26065.36633386  .00218446  00000+0  13033-2 0  9995
2 43182  97.5448 355.3360 0002289 134.6606 225.4847 15.77286421444949
LEMUR-2-KADI            
1 43184U 18014E   26065.34142089  .00097526  00000+0  10509-2 0  9999
2 43184  97.4713 349.8198 0000745  82.6362 277.4981 15.63372747444867
LEMUR-2-AMANDA-SVANTE   
1 48269U 21034B   26065.17537971  .00029051  00000+0  10568-2 0  9996
2 48269  97.5832 141.1964 0002372 216.4772 143.6306 15.28198894265296
LEMUR-2-SPECIAL-K       
1 48273U 21034F   26065.21912231  .00073279  00000+0  15558-2 0  9997
2 48273  97.5721 146.3818 0001524 218.2117 141.9023 15.44768820265707
LEMUR-2-EMBRIONOVIS     
1 56970U 23084AQ  26065.60645407  .00011059  00000+0  33210-3 0  9992
2 56970  97.6126 206.1878 0008490 324.9078  35.1604 15.34581434151932
LEMUR-2-MANO            
1 57390U 23100E   26064.98096266  .00133427  00000+0  16522-2 0  9991
2 57390  99.4554  86.2853 0001648  62.9717 297.1701 15.59614178145908
LEMUR-2-DEVERILL-M-T    
1 57391U 23100F   26065.25987449  .00030531  00000+0  91281-3 0  9993
2 57391  99.4575  74.7363 0008409  38.6260 321.5576 15.34507627145438
LEMUR-2-BASS            
1 58259U 23174D   26065.18546877  .00020204  00000+0  51386-3 0  9994
2 58259  97.3887 148.7168 0008029 174.4383 185.6954 15.39606044129498
